NORAD_CAT_ID,OBJECT_NAME,OBJECT_TYPE,EPOCH,MEAN_MOTION,ECCENTRICITY,INCLINATION,RA_OF_ASC_NODE,ARG_OF_PERICENTER,MEAN_ANOMALY,BSTAR,MEAN_MOTION_DOT,MEAN_MOTION_DDOT,TLE_LINE0,TLE_LINE1,TLE_LINE2,SEMIMAJOR_AXIS,PERIOD,APOGEE,PERIGEE,DECAYED
50168.0,STARLINK-3296,PAYLOAD,2024-05-29 19:56:10,15.08846048,0.0001026,53.2179,282.0498,94.3958,265.7151,8.3266e-05,1.038e-05,0.0,0 STARLINK-3296,1 50168U 21125N   24150.83067444  .00001038  00000-0  83266-4 0  9990,2 50168  53.2179 282.0498 0001026  94.3958 265.7151 15.08846048138642,6917.862,95.437,540.437,539.017,0.0
50168.0,STARLINK-3296,PAYLOAD,2024-05-30 13:25:24,15.08843027,0.0001226,53.2183,278.78,79.5489,280.5642,8.5273e-05,1.07e-05,0.0,0 STARLINK-3296,1 50168U 21125N   24151.55931678  .00001070  00000-0  85273-4 0  9995,2 50168  53.2183 278.7800 0001226  79.5489 280.5642 15.08843027138758,6917.871,95.437,540.584,538.888,0.0
50168.0,STARLINK-3296,PAYLOAD,2024-05-30 15:00:48,15.08844096,0.0001258,53.218,278.4824,78.5462,281.5672,9.4696e-05,1.22e-05,0.0,0 STARLINK-3296,1 50168U 21125N   24151.62555579  .00001220  00000-0  94696-4 0  9991,2 50168  53.2180 278.4824 0001258  78.5462 281.5672 15.08844096135672,6917.868,95.437,540.603,538.863,0.0
50168.0,STARLINK-3296,PAYLOAD,2024-05-31 14:51:34,15.08843046,0.0001192,53.2182,274.0208,99.2118,260.9009,7.282e-05,8.71e-06,0.0,0 STARLINK-3296,1 50168U 21125N   24152.61915428  .00000871  00000-0  72820-4 0  9990,2 50168  53.2182 274.0208 0001192  99.2118 260.9009 15.08843046138916,6917.871,95.437,540.561,538.911,0.0
50168.0,STARLINK-3296,PAYLOAD,2024-05-31 18:02:21,15.0884395,0.0001212,53.2189,273.4263,96.6224,263.4907,6.6483e-05,7.7e-06,0.0,0 STARLINK-3296,1 50168U 21125N   24152.75163375  .00000770  00000-0  66483-4 0  9997,2 50168  53.2189 273.4263 0001212  96.6224 263.4907 15.08843950135847,6917.868,95.437,540.572,538.895,0.0
50168.0,STARLINK-3296,PAYLOAD,2024-06-01 13:06:59,15.08834427,0.0001277,53.2187,269.858,101.7025,258.4111,1.7357e-05,-1.2e-07,0.0,0 STARLINK-3296,1 50168U 21125N   24153.54652124 -.00000012  00000-0  17357-4 0  9996,2 50168  53.2187 269.8580 0001277 101.7025 258.4111 15.08834427135967,6917.897,95.438,540.646,538.879,0.0
50168.0,STARLINK-3296,PAYLOAD,2024-06-01 14:42:22,15.08833773,0.0001189,53.2185,269.5642,93.7263,266.3865,1.8984e-05,1.4e-07,0.0,0 STARLINK-3296,1 50168U 21125N   24153.61276209  .00000014  00000-0  18984-4 0  9998,2 50168  53.2185 269.5642 0001189  93.7263 266.3865 15.08833773139069,6917.899,95.438,540.587,538.942,0.0
50168.0,STARLINK-3296,PAYLOAD,2024-06-02 00:14:40,15.08843835,0.0001194,53.2181,267.7768,91.2783,268.8346,5.8224e-05,6.39e-06,0.0,0 STARLINK-3296,1 50168U 21125N   24154.01019451  .00000639  00000-0  58224-4 0  9991,2 50168  53.2181 267.7768 0001194  91.2783 268.8346 15.08843835136035,6917.869,95.437,540.56,538.908,0.0
50168.0,STARLINK-3296,PAYLOAD,2024-06-02 11:22:23,15.08833162,0.0001329,53.2196,265.6986,99.7834,260.3308,-2.5061e-05,-6.87e-06,0.0,0 STARLINK-3296,1 50168U 21125N   24154.47388492 -.00000687  00000-0 -25061-4 0  9993,2 50168  53.2196 265.6986 0001329  99.7834 260.3308 15.08833162136105,6917.901,95.438,540.686,538.847,0.0
50168.0,STARLINK-3296,PAYLOAD,2024-06-02 14:33:09,15.08834315,0.0001333,53.2193,265.105,101.0561,259.0581,1.1735e-06,-2.69e-06,0.0,0 STARLINK-3296,1 50168U 21125N   24154.60636437 -.00000269  00000-0  11735-5 0  9992,2 50168  53.2193 265.1050 0001333 101.0561 259.0581 15.08834315139212,6917.898,95.438,540.685,538.841,0.0
50168.0,STARLINK-3296,PAYLOAD,2024-06-03 11:13:10,15.08834557,0.0001291,53.2177,261.2377,90.4041,269.7099,9.4367e-05,1.214e-05,0.0,0 STARLINK-3296,1 50168U 21125N   24155.46748510  .00001214  00000-0  94367-4 0  9994,2 50168  53.2177 261.2377 0001291  90.4041 269.7099 15.08834557139344,6917.897,95.438,540.655,538.869,0.0
50168.0,STARLINK-3296,PAYLOAD,2024-06-03 15:59:20,15.0883578,0.0001294,53.218,260.3459,90.2574,269.8566,0.00010094,1.319e-05,0.0,0 STARLINK-3296,1 50168U 21125N   24155.66620507  .00001319  00000-0  10094-3 0  9991,2 50168  53.2180 260.3459 0001294  90.2574 269.8566 15.08835780136280,6917.893,95.438,540.653,538.863,0.0
50168.0,STARLINK-3296,PAYLOAD,2024-06-04 11:03:57,15.0883777,0.0001292,53.2173,256.7774,87.2124,272.9016,0.00012491,1.7e-05,0.0,0 STARLINK-3296,1 50168U 21125N   24156.46108516  .00001700  00000-0  12491-3 0  9998,2 50168  53.2173 256.7774 0001292  87.2124 272.9016 15.08837770139498,6917.887,95.438,540.646,538.858,0.0
50168.0,STARLINK-3296,PAYLOAD,2024-06-04 15:50:07,15.0883412,0.0001356,53.217,255.8849,91.2709,268.8439,0.00028753,4.29e-05,0.0,0 STARLINK-3296,1 50168U 21125N   24156.65980432  .00004290  00000-0  28753-3 0  9999,2 50168  53.2170 255.8849 0001356  91.2709 268.8439 15.08834120139526,6917.898,95.438,540.701,538.825,0.0
50168.0,STARLINK-3296,PAYLOAD,2024-06-04 23:47:02,15.08847987,0.0001392,53.216,254.3973,90.2613,269.8539,0.00013559,1.871e-05,0.0,0 STARLINK-3296,1 50168U 21125N   24156.99099759  .00001871  00000-0  13559-3 0  9999,2 50168  53.2160 254.3973 0001392  90.2613 269.8539 15.08847987136489,6917.856,95.437,540.684,538.758,0.0
50168.0,STARLINK-3296,PAYLOAD,2024-06-05 12:30:09,15.08824463,0.0001289,53.2146,252.0175,102.0855,258.0282,-3.5496e-05,-8.52e-06,0.0,0 STARLINK-3296,1 50168U 21125N   24157.52093939 -.00000852  00000-0 -35496-4 0  9998,2 50168  53.2146 252.0175 0001289 102.0855 258.0282 15.08824463136565,6917.928,95.439,540.685,538.901,0.0
50168.0,STARLINK-3296,PAYLOAD,2024-06-05 15:40:54,15.08833178,0.0001398,53.2176,251.421,103.5727,256.5421,4.8972e-05,4.91e-06,0.0,0 STARLINK-3296,1 50168U 21125N   24157.65341318  .00000491  00000-0  48972-4 0  9999,2 50168  53.2176 251.4210 0001398 103.5727 256.5421 15.08833178136589,6917.901,95.438,540.733,538.799,0.0
50168.0,STARLINK-3296,PAYLOAD,2024-06-05 23:37:49,15.08844253,0.0001281,53.2166,249.9348,99.5499,260.5638,0.00011639,1.565e-05,0.0,0 STARLINK-3296,1 50168U 21125N   24157.98460492  .00001565  00000-0  11639-3 0  9992,2 50168  53.2166 249.9348 0001281  99.5499 260.5638 15.08844253136630,6917.867,95.437,540.619,538.846,0.0
50168.0,STARLINK-3296,PAYLOAD,2024-06-06 12:20:54,15.08846964,0.0001292,53.2157,247.5562,97.6108,262.5031,0.00015831,2.233e-05,0.0,0 STARLINK-3296,1 50168U 21125N   24158.51452485  .00002233  00000-0  15831-3 0  9996,2 50168  53.2157 247.5562 0001292  97.6108 262.5031 15.08846964139802,6917.859,95.437,540.618,538.83,0.0
50168.0,STARLINK-3296,PAYLOAD,2024-06-07 09:00:56,15.08835116,0.000128,53.2165,243.6869,112.1892,247.9236,0.00033394,5.03e-05,0.0,0 STARLINK-3296,1 50168U 21125N   24159.37565052  .00005030  00000-0  33394-3 0  9998,2 50168  53.2165 243.6869 0001280 112.1892 247.9236 15.08835116136840,6917.895,95.438,540.646,538.875,0.0
50168.0,STARLINK-3296,PAYLOAD,2024-06-07 15:22:28,15.08838898,0.0001439,53.2168,242.4984,108.6569,251.458,0.00011475,1.539e-05,0.0,0 STARLINK-3296,1 50168U 21125N   24159.64060766  .00001539  00000-0  11475-3 0  9996,2 50168  53.2168 242.4984 0001439 108.6569 251.4580 15.08838898139974,6917.884,95.438,540.744,538.753,0.0
50168.0,STARLINK-3296,PAYLOAD,2024-06-08 12:02:28,15.08845313,0.0001283,53.2168,238.6334,94.4285,265.6854,7.5262e-05,9.1e-06,0.0,0 STARLINK-3296,1 50168U 21125N   24160.50172247  .00000910  00000-0  75262-4 0  9998,2 50168  53.2168 238.6334 0001283  94.4285 265.6854 15.08845313140102,6917.864,95.437,540.617,538.842,0.0
50168.0,STARLINK-3296,PAYLOAD,2024-06-08 16:48:37,15.08845345,0.0001466,53.2179,237.7414,97.6454,262.4704,0.00019912,2.883e-05,0.0,0 STARLINK-3296,1 50168U 21125N   24160.70043896  .00002883  00000-0  19912-3 0  9997,2 50168  53.2179 237.7414 0001466  97.6454 262.4704 15.08845345137042,6917.864,95.437,540.743,538.715,0.0
50168.0,STARLINK-3296,PAYLOAD,2024-06-09 10:17:53,15.0883152,0.0001511,53.2169,234.4709,102.4635,257.6526,3.4766e-05,2.65e-06,0.0,0 STARLINK-3296,1 50168U 21125N   24161.42909335  .00000265  00000-0  34766-4 0  9993,2 50168  53.2169 234.4709 0001511 102.4635 257.6526 15.08831520137159,6917.906,95.438,540.817,538.726,0.0
50168.0,STARLINK-3296,PAYLOAD,2024-06-09 21:25:35,15.08836584,0.000148,53.2174,232.3909,94.289,265.8271,4.5747e-05,4.4e-06,0.0,0 STARLINK-3296,1 50168U 21125N   24161.89277205  .00000440  00000-0  45747-4 0  9994,2 50168  53.2174 232.3909 0001480  94.2890 265.8271 15.08836584140315,6917.891,95.438,540.78,538.732,0.0
50168.0,STARLINK-3296,PAYLOAD,2024-06-10 11:44:03,15.08840575,0.0001437,53.2171,229.7163,97.1564,262.9591,9.0484e-05,1.152e-05,0.0,0 STARLINK-3296,1 50168U 21125N   24162.48893039  .00001152  00000-0  90484-4 0  9998,2 50168  53.2171 229.7163 0001437  97.1564 262.9591 15.08840575137310,6917.879,95.438,540.738,538.75,0.0
50168.0,STARLINK-3296,PAYLOAD,2024-06-11 11:34:50,15.08837379,0.0001417,53.2169,225.256,92.2975,267.8179,0.00013167,1.808e-05,0.0,0 STARLINK-3296,1 50168U 21125N   24163.48253286  .00001808  00000-0  13167-3 0  9993,2 50168  53.2169 225.2560 0001417  92.2975 267.8179 15.08837379140553,6917.888,95.438,540.734,538.773,0.0
50168.0,STARLINK-3296,PAYLOAD,2024-06-11 21:07:09,15.08843744,0.0001496,53.2161,223.4722,91.5199,268.5965,0.00013879,1.922e-05,0.0,0 STARLINK-3296,1 50168U 21125N   24163.87996761  .00001922  00000-0  13879-3 0  9995,2 50168  53.2161 223.4722 0001496  91.5199 268.5965 15.08843744137529,6917.869,95.437,540.769,538.699,0.0
50168.0,STARLINK-3296,PAYLOAD,2024-06-12 11:25:38,15.08837459,0.000137,53.2172,220.7926,86.2104,273.9045,-3.8906e-05,-9.07e-06,0.0,0 STARLINK-3296,1 50168U 21125N   24164.47613900 -.00000907  00000-0 -38906-4 0  9996,2 50168  53.2172 220.7926 0001370  86.2104 273.9045 15.08837459137610,6917.888,95.438,540.701,538.805,0.0
50168.0,STARLINK-3296,PAYLOAD,2024-06-13 03:19:29,15.08839335,0.0001477,53.2172,217.8213,90.6728,269.4434,0.00014198,1.972e-05,0.0,0 STARLINK-3296,1 50168U 21125N   24165.13853367  .00001972  00000-0  14198-3 0  9990,2 50168  53.2172 217.8213 0001477  90.6728 269.4434 15.08839335137713,6917.882,95.438,540.769,538.726,0.0
